[{"OBJECT_NAME":"STARLINK-32015","OBJECT_ID":"2024-117W","EPOCH":"2026-03-20T00:36:49.215168","MEAN_MOTION":15.3019881,"ECCENTRICITY":0.0001114,"INCLINATION":53.162,"RA_OF_ASC_NODE":348.7754,"ARG_OF_PERICENTER":82.2647,"MEAN_ANOMALY":277.8481,"EPHEMERIS_TYPE":0,"CLASSIFICATION_TYPE":"U","NORAD_CAT_ID":60111,"ELEMENT_SET_NO":999,"REV_AT_EPOCH":9847,"BSTAR":7.873e-5,"MEAN_MOTION_DOT":1.973e-5,"MEAN_MOTION_DDOT":0},{"OBJECT_NAME":"STARLINK-32024","OBJECT_ID":"2024-117X","EPOCH":"2026-03-20T00:55:06.070944","MEAN_MOTION":15.30160561,"ECCENTRICITY":0.0001099,"INCLINATION":53.1615,"RA_OF_ASC_NODE":348.8549,"ARG_OF_PERICENTER":76.3367,"MEAN_ANOMALY":283.7756,"EPHEMERIS_TYPE":0,"CLASSIFICATION_TYPE":"U","NORAD_CAT_ID":60112,"ELEMENT_SET_NO":999,"REV_AT_EPOCH":9847,"BSTAR":-0.00011128,"MEAN_MOTION_DOT":-3.649e-5,"MEAN_MOTION_DDOT":0},{"OBJECT_NAME":"STARLINK-11201 [DTC]","OBJECT_ID":"2024-118A","EPOCH":"2026-03-20T05:23:16.978848","MEAN_MOTION":15.69710309,"ECCENTRICITY":5.65e-5,"INCLINATION":53.1611,"RA_OF_ASC_NODE":169.6443,"ARG_OF_PERICENTER":326.8906,"MEAN_ANOMALY":33.2077,"EPHEMERIS_TYPE":0,"CLASSIFICATION_TYPE":"U","NORAD_CAT_ID":60113,"ELEMENT_SET_NO":999,"REV_AT_EPOCH":9964,"BSTAR":-7.2839e-7,"MEAN_MOTION_DOT":-6.76e-6,"MEAN_MOTION_DDOT":0},{"OBJECT_NAME":"STARLINK-11198 [DTC]","OBJECT_ID":"2024-118B","EPOCH":"2026-03-20T05:16:12.797184","MEAN_MOTION":15.697183,"ECCENTRICITY":0.0001374,"INCLINATION":53.1574,"RA_OF_ASC_NODE":169.6117,"ARG_OF_PERICENTER":76.1837,"MEAN_ANOMALY":283.9334,"EPHEMERIS_TYPE":0,"CLASSIFICATION_TYPE":"U","NORAD_CAT_ID":60114,"ELEMENT_SET_NO":999,"REV_AT_EPOCH":9964,"BSTAR":4.7357e-6,"MEAN_MOTION_DOT":-1.5e-7,"MEAN_MOTION_DDOT":0},{"OBJECT_NAME":"STARLINK-11112 [DTC]","OBJECT_ID":"2024-118C","EPOCH":"2026-03-18T13:25:23.118240","MEAN_MOTION":15.6970407,"ECCENTRICITY":0.00015027,"INCLINATION":53.1573,"RA_OF_ASC_NODE":177.7398,"ARG_OF_PERICENTER":74.347,"MEAN_ANOMALY":285.7713,"EPHEMERIS_TYPE":0,"CLASSIFICATION_TYPE":"U","NORAD_CAT_ID":60115,"ELEMENT_SET_NO":999,"REV_AT_EPOCH":9938,"BSTAR":-2.670317e-6,"MEAN_MOTION_DOT":-9.13e-6,"MEAN_MOTION_DDOT":0},{"OBJECT_NAME":"STARLINK-11210 [DTC]","OBJECT_ID":"2024-118D","EPOCH":"2026-03-19T00:00:06.120576","MEAN_MOTION":15.69708539,"ECCENTRICITY":0.00012845,"INCLINATION":53.1588,"RA_OF_ASC_NODE":175.5085,"ARG_OF_PERICENTER":92.3182,"MEAN_ANOMALY":267.7983,"EPHEMERIS_TYPE":0,"CLASSIFICATION_TYPE":"U","NORAD_CAT_ID":60116,"ELEMENT_SET_NO":999,"REV_AT_EPOCH":9945,"BSTAR":2.99836e-6,"MEAN_MOTION_DOT":-2.26e-6,"MEAN_MOTION_DDOT":0},{"OBJECT_NAME":"STARLINK-11203 [DTC]","OBJECT_ID":"2024-118E","EPOCH":"2026-03-19T15:09:52.736832","MEAN_MOTION":15.69714347,"ECCENTRICITY":0.0001155,"INCLINATION":53.1576,"RA_OF_ASC_NODE":172.3377,"ARG_OF_PERICENTER":78.6482,"MEAN_ANOMALY":281.4666,"EPHEMERIS_TYPE":0,"CLASSIFICATION_TYPE":"U","NORAD_CAT_ID":60117,"ELEMENT_SET_NO":999,"REV_AT_EPOCH":9955,"BSTAR":3.039306e-6,"MEAN_MOTION_DOT":-2.2e-6,"MEAN_MOTION_DDOT":0},{"OBJECT_NAME":"STARLINK-11177 [DTC]","OBJECT_ID":"2024-118F","EPOCH":"2026-03-19T10:27:45.255744","MEAN_MOTION":15.6971208,"ECCENTRICITY":0.00013622,"INCLINATION":53.1549,"RA_OF_ASC_NODE":173.2463,"ARG_OF_PERICENTER":93.9802,"MEAN_ANOMALY":266.1372,"EPHEMERIS_TYPE":0,"CLASSIFICATION_TYPE":"U","NORAD_CAT_ID":60118,"ELEMENT_SET_NO":999,"REV_AT_EPOCH":9952,"BSTAR":3.261964e-6,"MEAN_MOTION_DOT":-1.94e-6,"MEAN_MOTION_DDOT":0},{"OBJECT_NAME":"STARLINK-11127 [DTC]","OBJECT_ID":"2024-118G","EPOCH":"2026-03-19T16:27:26.456832","MEAN_MOTION":15.69700857,"ECCENTRICITY":9.529e-5,"INCLINATION":53.159,"RA_OF_ASC_NODE":171.9597,"ARG_OF_PERICENTER":81.8031,"MEAN_ANOMALY":278.3094,"EPHEMERIS_TYPE":0,"CLASSIFICATION_TYPE":"U","NORAD_CAT_ID":60119,"ELEMENT_SET_NO":999,"REV_AT_EPOCH":9956,"BSTAR":-1.1016184e-5,"MEAN_MOTION_DOT":-1.922e-5,"MEAN_MOTION_DDOT":0},{"OBJECT_NAME":"STARLINK-11164 [DTC]","OBJECT_ID":"2024-118H","EPOCH":"2026-03-19T13:17:00.457728","MEAN_MOTION":15.69701882,"ECCENTRICITY":0.00010267,"INCLINATION":53.1585,"RA_OF_ASC_NODE":172.553,"ARG_OF_PERICENTER":69.0135,"MEAN_ANOMALY":291.0993,"EPHEMERIS_TYPE":0,"CLASSIFICATION_TYPE":"U","NORAD_CAT_ID":60120,"ELEMENT_SET_NO":999,"REV_AT_EPOCH":9954,"BSTAR":-7.116179e-6,"MEAN_MOTION_DOT":-1.45e-5,"MEAN_MOTION_DDOT":0},{"OBJECT_NAME":"STARLINK-11119 [DTC]","OBJECT_ID":"2024-118J","EPOCH":"2026-03-19T12:55:49.356480","MEAN_MOTION":15.69691475,"ECCENTRICITY":5.403e-5,"INCLINATION":53.1594,"RA_OF_ASC_NODE":172.4545,"ARG_OF_PERICENTER":59.6744,"MEAN_ANOMALY":300.4327,"EPHEMERIS_TYPE":0,"CLASSIFICATION_TYPE":"U","NORAD_CAT_ID":60121,"ELEMENT_SET_NO":999,"REV_AT_EPOCH":9954,"BSTAR":-8.64787e-6,"MEAN_MOTION_DOT":-1.634e-5,"MEAN_MOTION_DDOT":0},{"OBJECT_NAME":"STARLINK-11157 [DTC]","OBJECT_ID":"2024-118K","EPOCH":"2026-03-19T16:06:14.404320","MEAN_MOTION":15.69715905,"ECCENTRICITY":0.00011883,"INCLINATION":53.1574,"RA_OF_ASC_NODE":171.8608,"ARG_OF_PERICENTER":78.2699,"MEAN_ANOMALY":281.8452,"EPHEMERIS_TYPE":0,"CLASSIFICATION_TYPE":"U","NORAD_CAT_ID":60122,"ELEMENT_SET_NO":999,"REV_AT_EPOCH":9956,"BSTAR":8.8020606e-5,"MEAN_MOTION_DOT":0.0001009,"MEAN_MOTION_DDOT":0},{"OBJECT_NAME":"STARLINK-11162 [DTC]","OBJECT_ID":"2024-118L","EPOCH":"2026-03-19T15:52:07.015584","MEAN_MOTION":15.69702053,"ECCENTRICITY":8.731e-5,"INCLINATION":53.1611,"RA_OF_ASC_NODE":171.7924,"ARG_OF_PERICENTER":116.3576,"MEAN_ANOMALY":243.7532,"EPHEMERIS_TYPE":0,"CLASSIFICATION_TYPE":"U","NORAD_CAT_ID":60123,"ELEMENT_SET_NO":999,"REV_AT_EPOCH":9956,"BSTAR":-2.317879e-6,"MEAN_MOTION_DOT":-8.69e-6,"MEAN_MOTION_DDOT":0},{"OBJECT_NAME":"STARLINK-11161 [DTC]","OBJECT_ID":"2024-118M","EPOCH":"2026-03-19T12:41:49.989984","MEAN_MOTION":15.69705561,"ECCENTRICITY":7.43e-6,"INCLINATION":53.1601,"RA_OF_ASC_NODE":173.1245,"ARG_OF_PERICENTER":277.0757,"MEAN_ANOMALY":83.0252,"EPHEMERIS_TYPE":0,"CLASSIFICATION_TYPE":"U","NORAD_CAT_ID":60124,"ELEMENT_SET_NO":999,"REV_AT_EPOCH":9953,"BSTAR":-2.2667932e-5,"MEAN_MOTION_DOT":-3.331e-5,"MEAN_MOTION_DDOT":0},{"OBJECT_NAME":"STARLINK-11160 [DTC]","OBJECT_ID":"2024-118N","EPOCH":"2026-03-19T13:09:57.152160","MEAN_MOTION":15.69689874,"ECCENTRICITY":3.801e-5,"INCLINATION":53.1567,"RA_OF_ASC_NODE":172.518,"ARG_OF_PERICENTER":28.8233,"MEAN_ANOMALY":331.2806,"EPHEMERIS_TYPE":0,"CLASSIFICATION_TYPE":"U","NORAD_CAT_ID":60125,"ELEMENT_SET_NO":999,"REV_AT_EPOCH":9954,"BSTAR":-1.0785056e-5,"MEAN_MOTION_DOT":-1.892e-5,"MEAN_MOTION_DDOT":0},{"OBJECT_NAME":"STARLINK-31846","OBJECT_ID":"2024-118P","EPOCH":"2026-03-20T02:51:55.442016","MEAN_MOTION":15.30197169,"ECCENTRICITY":0.0001128,"INCLINATION":53.161,"RA_OF_ASC_NODE":338.2436,"ARG_OF_PERICENTER":81.8629,"MEAN_ANOMALY":278.25,"EPHEMERIS_TYPE":0,"CLASSIFICATION_TYPE":"U","NORAD_CAT_ID":60126,"ELEMENT_SET_NO":999,"REV_AT_EPOCH":9729,"BSTAR":2.5297e-5,"MEAN_MOTION_DOT":3.9e-6,"MEAN_MOTION_DDOT":0}]
