STARLINK-32015          
1 60111U 24117W   26079.02556962  .00001973  00000+0  78730-4 0  9991
2 60111  53.1620 348.7754 0001114  82.2647 277.8481 15.30198810 98473
STARLINK-32024          
1 60112U 24117X   26079.03826471 -.00003649  00000+0 -11128-3 0  9999
2 60112  53.1615 348.8549 0001099  76.3367 283.7756 15.30160561 98479
STARLINK-11201 [DTC]    
1 60113U 24118A   26079.22450207 -.00000676  00000+0 -72839-6 0  9998
2 60113  53.1611 169.6443 0000565 326.8906  33.2077 15.69710309 99644
STARLINK-11198 [DTC]    
1 60114U 24118B   26079.21959256 -.00000015  00000+0  47357-5 0  9998
2 60114  53.1574 169.6117 0001374  76.1837 283.9334 15.69718300 99647
STARLINK-11112 [DTC]    
1 60115U 24118C   26077.55929535 -.00000913  00000+0 -26703-5 0  9991
2 60115  53.1573 177.7398 0001502  74.3470 285.7713 15.69704070 99385
STARLINK-11210 [DTC]    
1 60116U 24118D   26078.00007084 -.00000226  00000+0  29984-5 0  9999
2 60116  53.1588 175.5085 0001284  92.3182 267.7983 15.69708539 99459
STARLINK-11203 [DTC]    
1 60117U 24118E   26078.63186038 -.00000220  00000+0  30393-5 0  9996
2 60117  53.1576 172.3377 0001155  78.6482 281.4666 15.69714347 99559
STARLINK-11177 [DTC]    
1 60118U 24118F   26078.43594046 -.00000194  00000+0  32620-5 0  9992
2 60118  53.1549 173.2463 0001362  93.9802 266.1372 15.69712080 99525
STARLINK-11127 [DTC]    
1 60119U 24118G   26078.68572288 -.00001922  00000+0 -11016-4 0  9990
2 60119  53.1590 171.9597 0000952  81.8031 278.3094 15.69700857 99568
STARLINK-11164 [DTC]    
1 60120U 24118H   26078.55347752 -.00001450  00000+0 -71162-5 0  9999
2 60120  53.1585 172.5530 0001026  69.0135 291.0993 15.69701882 99541
STARLINK-11119 [DTC]    
1 60121U 24118J   26078.53876570 -.00001634  00000+0 -86479-5 0  9994
2 60121  53.1594 172.4545 0000540  59.6744 300.4327 15.69691475 99540
STARLINK-11157 [DTC]    
1 60122U 24118K   26078.67100005  .00010090  00000+0  88021-4 0  9991
2 60122  53.1574 171.8608 0001188  78.2699 281.8452 15.69715905 99565
STARLINK-11162 [DTC]    
1 60123U 24118L   26078.66119231 -.00000869  00000+0 -23179-5 0  9991
2 60123  53.1611 171.7924 0000873 116.3576 243.7532 15.69702053 99562
STARLINK-11161 [DTC]    
1 60124U 24118M   26078.52905081 -.00003331  00000+0 -22668-4 0  9991
2 60124  53.1601 173.1245 0000074 277.0757  83.0252 15.69705561 99531
STARLINK-11160 [DTC]    
1 60125U 24118N   26078.54857815 -.00001892  00000+0 -10785-4 0  9992
2 60125  53.1567 172.5180 0000380  28.8233 331.2806 15.69689874 99547
STARLINK-31846          
1 60126U 24118P   26079.11939169  .00000390  00000+0  25297-4 0  9994
2 60126  53.1610 338.2436 0001128  81.8629 278.2500 15.30197169 97291
